COSMOS 2433 (720)       
1 32275U 07052A   22137.10982803 -.00000049  00000+0  00000+0 0  9991
2 32275  66.0821   5.7104 0001081 294.9698  40.0142  2.13104173113297
COSMOS 2432 (719)       
1 32276U 07052B   22137.47536454 -.00000051  00000+0  00000+0 0  9992
2 32276  66.0955   5.7995 0010315 341.1325 222.6930  2.13103560113300
COSMOS 2434 (721)       
1 32393U 07065A   22137.33845510  .00000026  00000+0  00000+0 0  9998
2 32393  64.3896 242.4877 0003208  89.1794 310.6547  2.13103247112017
COSMOS 2436 (723)       
1 32395U 07065C   22137.57269083  .00000026  00000+0  00000+0 0  9991
2 32395  64.3988 242.5351 0015162   3.0251 352.4068  2.13103063111943
COSMOS 2456 (730)       
1 36111U 09070A   22137.22980407  .00000060  00000+0  00000+0 0  9999
2 36111  64.3457 122.1263 0006327 303.5466 178.9336  2.13099321 96670
COSMOS 2457 (733)       
1 36112U 09070B   22137.59244198  .00000058  00000+0  00000+0 0  9997
2 36112  64.3290 121.9903 0004191 200.8687 326.8593  2.13101501 96689
COSMOS 2461 (735)       
1 36401U 10007B   22137.55295243 -.00000051  00000+0  00000+0 0  9997
2 36401  65.9695   4.5384 0021822  10.3633 162.0341  2.13103887 95038
COSMOS 2460 (732)       
1 36402U 10007C   22137.37238390 -.00000050  00000+0  00000+0 0  9997
2 36402  65.9561   4.4944 0002382  45.3108 296.6835  2.13106529 95024
COSMOS 2464 (736)       
1 37139U 10041C   22137.59961591  .00000026  00000+0  00000+0 0  9995
2 37139  63.9899 241.5687 0028812  11.6727  86.9716  2.13100829 91099
COSMOS 2476 (744)       
1 37867U 11064A   22137.32921944  .00000062  00000+0  00000+0 0  9998
2 37867  64.6350 123.4674 0023114 241.8575 222.1429  2.13101981 82027
COSMOS 2477 (745)       
1 37868U 11064B   22137.77339785  .00000060  00000+0  00000+0 0  9992
2 37868  64.6433 123.5168 0020485 243.2154  19.6672  2.13101753 81986
COSMOS 2475 (743)       
1 37869U 11064C   22137.65157155  .00000061  00000+0  00000+0 0  9990
2 37869  64.6509 123.5284 0025313 258.8154 228.5825  2.13102038 81996
COSMOS 2485 (747)       
1 39155U 13019A   22137.38009634  .00000063  00000+0  00000+0 0  9992
2 39155  64.7994 123.8868 0023494 237.7337 309.6861  2.13102013 70490
COSMOS 2492 (754)       
1 39620U 14012A   22137.27835578 -.00000050  00000+0  00000+0 0  9992
2 39620  65.8415   4.1837 0013202 333.3671 170.5190  2.13103385 63444
COSMOS 2500 (755)       
1 40001U 14032A   22137.42954861 -.00000051  00000+0  00000+0 0  9994
2 40001  65.7835   4.0422 0004230 191.2411 287.3834  2.13102556 61660
COSMOS 2501 (702K)      
1 40315U 14075A   22137.44873031  .00000025  00000+0  00000+0 0  9990
2 40315  63.6989 242.2554 0017900 208.3197  92.8480  2.13101604 58065
COSMOS 2514 (751)       
1 41330U 16008A   22137.50467022 -.00000051  00000+0  00000+0 0  9992
2 41330  65.5818   3.7384 0007905 204.8477 155.1738  2.13102643 48839
COSMOS 2516 (753)       
1 41554U 16032A   22137.57625796  .00000025  00000+0  00000+0 0  9998
2 41554  63.9230 242.5175 0014020 214.0032 103.0297  2.13106346 46434
COSMOS 2522 (752)       
1 42939U 17055A   22137.35751494  .00000025  00000+0  00000+0 0  9993
2 42939  64.1558 242.9112 0007061 239.2905 127.2619  2.13102032 36194
COSMOS 2527 (756)       
1 43508U 18053A   22137.42514931  .00000063  00000+0  00000+0 0  9998
2 43508  64.9625 123.8789 0009790 243.5424 207.0068  2.13102600 30484
COSMOS 2529 (757)       
1 43687U 18086A   22137.50814708  .00000025  00000+0  00000+0 0  9994
2 43687  64.3705 243.2141 0008916 265.1457 172.4835  2.13102166 27502
COSMOS 2534 (758)       
1 44299U 19030A   22137.69661433  .00000025  00000+0  00000+0 0  9999
2 44299  64.4444 243.0901 0011654 287.6294  69.1806  2.13102137 23140
COSMOS 2544 (759)       
1 44850U 19088A   22137.47917576  .00000062  00000+0  00000+0 0  9994
2 44850  64.9481 123.7301 0014719 264.1556 271.3353  2.13102404 18913
COSMOS 2545 (760)       
1 45358U 20018A   22136.17407815 -.00000047  00000+0  00000+0 0  9993
2 45358  64.9186   4.4185 0007004 256.8132 206.9650  2.13102737 16844
COSMOS 2547 (705K)      
1 46805U 20075A   22137.57798481  .00000026  00000+0  00000+0 0  9997
2 46805  64.6678 242.5088 0006527 243.3164  70.0657  2.13103268 12110
